ONEWEB-0661             
1 55821U 23029AB  23249.25001157 -.00006309  00000+0 -14034-1 0  9990
2 55821  87.9548 131.7652 0001267 118.7987   9.1148 13.27693720 26726
ONEWEB-0662             
1 55822U 23029AC  23249.25001157 -.00069596  00000+0 -15586+0 0  9999
2 55822  87.9479 131.7701 0002332 157.0648 352.1344 13.27584836 26781
ONEWEB-0663             
1 55823U 23029AD  23249.16667824 -.01097352  00000+0 -41022+0 0  9995
2 55823  86.9348 120.6382 0002121 111.7960 311.9728 14.34987368 27504
ONEWEB-0664             
1 55824U 23029AE  23248.91667824 -.01119075  00000+0 -41249+0 0  9996
2 55824  86.9376 120.7089 0002135  97.6916  28.8755 14.35761095 27477
ONEWEB-0665             
1 55825U 23029AF  23249.16667824  .00011073  00000+0  24453-1 0  9991
2 55825  87.9514 131.7606 0002977 103.7087 217.3229 13.27823287 26722
ONEWEB-0666             
1 55826U 23029AG  23249.16667824 -.01113153  00000+0 -41116+0 0  9990
2 55826  86.9346 120.6604 0004032  83.5730 343.8676 14.35636117 27506
ONEWEB-0667             
1 55827U 23029AH  23248.91667824 -.01141077  00000+0 -43875+0 0  9993
2 55827  86.9450 120.7917 0001917  96.6302 314.7767 14.33680505 27461
ONEWEB-0669             
1 55828U 23029AJ  23248.91667824 -.01051408  00000+0 -38569+0 0  9996
2 55828  86.9349 120.7127 0003278 106.4889  96.2998 14.36334501 27478
